SL-3 R/B                
1 13403U 82079B   26043.13600379  .00006045  00000+0  24353-3 0  9995
2 13403  81.1442 223.2422 0024162 252.4121 107.4472 15.24415318373802
SL-14 R/B               
1 13553U 82092B   26042.87619881  .00000623  00000+0  67170-4 0  9995
2 13553  82.5707 165.5361 0021078  30.7572  90.4616 14.86638017325096
SL-3 R/B                
1 13819U 83010B   26042.99857631  .00015800  00000+0  32743-3 0  9991
2 13819  81.1027  33.7221 0018218 132.3465 227.9326 15.45426905353974
SL-3 R/B                
1 14208U 83075B   26043.11913552  .00012852  00000+0  34624-3 0  9999
2 14208  97.6133  46.7454 0020631 326.1249  33.8676 15.37757843326223
COSMOS 1536             
1 14699U 84013A   26042.71289562  .00006177  00000+0  25700-3 0  9996
2 14699  82.5469 133.6606 0014593  19.7386 340.4413 15.23476103268665
SL-14 R/B               
1 14820U 84027B   26043.17204120  .00000484  00000+0  52482-4 0  9998
2 14820  82.5394 268.9510 0019332  60.3437 299.9701 14.85951140243846
SL-8 R/B                
1 15483U 85006B   26043.14096003  .00000235  00000+0  86613-4 0  9995
2 15483  74.0466 308.1608 0019386 231.0236 287.4723 14.37770631150356
SL-12 R/B(2)            
1 15772U 85042D   26042.74723965  .00000140  00000+0  84299-4 0  9998
2 15772  71.1087 142.5376 0034744 169.8152 306.1122 14.21975225110702
SL-14 R/B               
1 15945U 85069B   26043.02990575  .00000601  00000+0  65235-4 0  9995
2 15945  82.5241  49.0659 0017197 278.3209  81.6057 14.86402598169029
SL-16 R/B               
1 16182U 85097B   26042.86989764 -.00000199  00000+0 -75913-4 0  9997
2 16182  71.0020 194.9075 0009704 289.8410 182.4138 14.16595725 83572
SL-14 R/B               
1 16496U 86006B   26043.14831181  .00000762  00000+0  78372-4 0  9993
2 16496  82.5260 283.7788 0076617 358.5733   1.5252 14.86780878145412
COSMOS 1743             
1 16719U 86034A   26043.13686628  .00032421  00000+0  45288-3 0  9991
2 16719  82.5329 100.6098 0004785  42.8629 317.2998 15.56686343176273
